{"type": "FeatureCollection", "features": [ {"type": "Feature", "properties": {"norad_id": 66688, "name": "TRANSPORTER-15Y", "group": "last-30-days", "lat": -47.37558608881377, "lon": 80.9777436989782, "alt_km": 521.311408287178, "timestamp": "2025-12-27T07:26:23.944887+00:00", "meta": {"OBJECT_NAME": "TRANSPORTER-15Y", "OBJECT_ID": "2025-276Y", "EPOCH": "2025-12-26T22:09:11.767968", "MEAN_MOTION": 15.17141287, "ECCENTRICITY": 0.00038606, "INCLINATION": 97.4426, "RA_OF_ASC_NODE": 72.4318, "ARG_OF_PERICENTER": 224.2475, "MEAN_ANOMALY": 135.8451, "EPHEMERIS_TYPE": 0, "CLASSIFICATION_TYPE": "U", "NORAD_CAT_ID": 66688, "ELEMENT_SET_NO": 999, "REV_AT_EPOCH": 427, "BSTAR": 0.0001046511, "MEAN_MOTION_DOT": 2.009e-05, "MEAN_MOTION_DDOT": 0}, "tle": {"line1": "1 66688U 25276Y   25360.92305287  .00002009  00000+0  10465-3 0  9997", "line2": "2 66688  97.4426  72.4318 0003860 224.2475 135.8451 15.17141287  4273"}}, "geometry": {"type": "Point", "coordinates": [80.9777436989782, -47.37558608881377]}}, {"type": "Feature", "properties": {"norad_id": 66689, "name": "TRANSPORTER-15Z", "group": "last-30-days", "lat": -27.69170765453053, "lon": 76.74881917183762, "alt_km": 520.2119505473329, "timestamp": "2025-12-27T07:26:23.944897+00:00", "meta": {"OBJECT_NAME": "TRANSPORTER-15Z", "OBJECT_ID": "2025-276Z", "EPOCH": "2025-12-26T17:19:02.825472", "MEAN_MOTION": 15.17231472, "ECCENTRICITY": 0.00013959, "INCLINATION": 97.4408, "RA_OF_ASC_NODE": 72.2379, "ARG_OF_PERICENTER": 234.1726, "MEAN_ANOMALY": 125.9378, "EPHEMERIS_TYPE": 0, "CLASSIFICATION_TYPE": "U", "NORAD_CAT_ID": 66689, "ELEMENT_SET_NO": 999, "REV_AT_EPOCH": 424, "BSTAR": 0.00058627203, "MEAN_MOTION_DOT": 0.00011604, "MEAN_MOTION_DDOT": 0}, "tle": {"line1": "1 66689U 25276Z   25360.72156048  .00011604  00000+0  58627-3 0  9998", "line2": "2 66689  97.4408  72.2379 0001395 234.1726 125.9378 15.17231472  4240"}}, "geometry": {"type": "Point", "coordinates": [76.74881917183762, -27.69170765453053]}}, {"type": "Feature", "properties": {"norad_id": 66690, "name": "TRANSPORTER-15AA", "group": "last-30-days", "lat": -48.0944433300351, "lon": 81.16959710132666, "alt_km": 521.2151639613894, "timestamp": "2025-12-27T07:26:23.944908+00:00", "meta": {"OBJECT_NAME": "TRANSPORTER-15AA", "OBJECT_ID": "2025-276AA", "EPOCH": "2025-12-26T22:09:22.646592", "MEAN_MOTION": 15.17108173, "ECCENTRICITY": 0.00037492, "INCLINATION": 97.4388, "RA_OF_ASC_NODE": 72.4184, "ARG_OF_PERICENTER": 228.1347, "MEAN_ANOMALY": 131.9567, "EPHEMERIS_TYPE": 0, "CLASSIFICATION_TYPE": "U", "NORAD_CAT_ID": 66690, "ELEMENT_SET_NO": 999, "REV_AT_EPOCH": 427, "BSTAR": 0.00037141718, "MEAN_MOTION_DOT": 7.298e-05, "MEAN_MOTION_DDOT": 0}, "tle": {"line1": "1 66690U 25276AA  25360.92317878  .00007298  00000+0  37142-3 0  9995", "line2": "2 66690  97.4388  72.4184 0003749 228.1347 131.9567 15.17108173  4273"}}, "geometry": {"type": "Point", "coordinates": [81.16959710132666, -48.0944433300351]}}, {"type": "Feature", "properties": {"norad_id": 66691, "name": "TRANSPORTER-15AB", "group": "last-30-days", "lat": -33.252880502312834, "lon": 77.72916358911053, "alt_km": 520.2700832628498, "timestamp": "2025-12-27T07:26:23.944917+00:00", "meta": {"OBJECT_NAME": "TRANSPORTER-15AB", "OBJECT_ID": "2025-276AB", "EPOCH": "2025-12-26T20:30:32.384736", "MEAN_MOTION": 15.17384939, "ECCENTRICITY": 0.00038405, "INCLINATION": 97.4412, "RA_OF_ASC_NODE": 72.3655, "ARG_OF_PERICENTER": 230.9435, "MEAN_ANOMALY": 129.1457, "EPHEMERIS_TYPE": 0, "CLASSIFICATION_TYPE": "U", "NORAD_CAT_ID": 66691, "ELEMENT_SET_NO": 999, "REV_AT_EPOCH": 426, "BSTAR": 0.00066158484, "MEAN_MOTION_DOT": 0.00013166, "MEAN_MOTION_DDOT": 0}, "tle": {"line1": "1 66691U 25276AB  25360.85454149  .00013166  00000+0  66158-3 0  9991", "line2": "2 66691  97.4412  72.3655 0003840 230.9435 129.1457 15.17384939  4267"}}, "geometry": {"type": "Point", "coordinates": [77.72916358911053, -33.252880502312834]}}, {"type": "Feature", "properties": {"norad_id": 66692, "name": "TRANSPORTER-15AC", "group": "last-30-days", "lat": -15.017173929886797, "lon": 74.8337648739066, "alt_km": 518.5911136936929, "timestamp": "2025-12-27T07:26:23.944929+00:00", "meta": {"OBJECT_NAME": "TRANSPORTER-15AC", "OBJECT_ID": "2025-276AC", "EPOCH": "2025-12-26T04:36:08.314560", "MEAN_MOTION": 15.17447229, "ECCENTRICITY": 0.00017803, "INCLINATION": 97.4413, "RA_OF_ASC_NODE": 71.7258, "ARG_OF_PERICENTER": 246.4774, "MEAN_ANOMALY": 113.6272, "EPHEMERIS_TYPE": 0, "CLASSIFICATION_TYPE": "U", "NORAD_CAT_ID": 66692, "ELEMENT_SET_NO": 999, "REV_AT_EPOCH": 416, "BSTAR": 0.00030393663, "MEAN_MOTION_DOT": 6.017e-05, "MEAN_MOTION_DDOT": 0}, "tle": {"line1": "1 66692U 25276AC  25360.19176290  .00006017  00000+0  30394-3 0  9997", "line2": "2 66692  97.4413  71.7258 0001780 246.4774 113.6272 15.17447229  4164"}}, "geometry": {"type": "Point", "coordinates": [74.8337648739066, -15.017173929886797]}}, {"type": "Feature", "properties": {"norad_id": 66693, "name": "TRANSPORTER-15AD", "group": "last-30-days", "lat": -11.528846534564227, "lon": 74.33076812464013, "alt_km": 517.2775497343409, "timestamp": "2025-12-27T07:26:23.944939+00:00", "meta": {"OBJECT_NAME": "TRANSPORTER-15AD", "OBJECT_ID": "2025-276AD", "EPOCH": "2025-12-26T21:59:50.211168", "MEAN_MOTION": 15.17736859, "ECCENTRICITY": 0.00032789, "INCLINATION": 97.4366, "RA_OF_ASC_NODE": 72.4176, "ARG_OF_PERICENTER": 255.2244, "MEAN_ANOMALY": 104.8627, "EPHEMERIS_TYPE": 0, "CLASSIFICATION_TYPE": "U", "NORAD_CAT_ID": 66693, "ELEMENT_SET_NO": 999, "REV_AT_EPOCH": 427, "BSTAR": 0.00084777269, "MEAN_MOTION_DOT": 0.00017069, "MEAN_MOTION_DDOT": 0}, "tle": {"line1": "1 66693U 25276AD  25360.91655337  .00017069  00000+0  84777-3 0  9995", "line2": "2 66693  97.4366  72.4176 0003278 255.2244 104.8627 15.17736859  4271"}}, "geometry": {"type": "Point", "coordinates": [74.33076812464013, -11.528846534564227]}}, {"type": "Feature", "properties": {"norad_id": 66694, "name": "YAM-9", "group": "last-30-days", "lat": -3.101924363976522, "lon": 73.23031309874314, "alt_km": 517.1220202206378, "timestamp": "2025-12-27T07:26:23.944949+00:00", "meta": {"OBJECT_NAME": "YAM-9", "OBJECT_ID": "2025-276AE", "EPOCH": "2025-12-26T20:22:36.684480", "MEAN_MOTION": 15.17633661, "ECCENTRICITY": 0.00016119, "INCLINATION": 97.4413, "RA_OF_ASC_NODE": 72.3715, "ARG_OF_PERICENTER": 230.7182, "MEAN_ANOMALY": 129.3909, "EPHEMERIS_TYPE": 0, "CLASSIFICATION_TYPE": "U", "NORAD_CAT_ID": 66694, "ELEMENT_SET_NO": 999, "REV_AT_EPOCH": 426, "BSTAR": 0.00064481099, "MEAN_MOTION_DOT": 0.0001292, "MEAN_MOTION_DDOT": 0}, "tle": {"line1": "1 66694U 25276AE  25360.84903570  .00012920  00000+0  64481-3 0  9994", "line2": "2 66694  97.4413  72.3715 0001611 230.7182 129.3909 15.17633661  4262"}}, "geometry": {"type": "Point", "coordinates": [73.23031309874314, -3.101924363976522]}}, {"type": "Feature", "properties": {"norad_id": 66695, "name": "IRIDE FM1", "group": "last-30-days", "lat": 64.62965839809556, "lon": 56.85364790513185, "alt_km": 504.1938751726457, "timestamp": "2025-12-27T07:26:23.944962+00:00", "meta": {"OBJECT_NAME": "IRIDE FM1", "OBJECT_ID": "2025-276AF", "EPOCH": "2025-12-26T20:04:47.844768", "MEAN_MOTION": 15.18329918, "ECCENTRICITY": 0.00020902, "INCLINATION": 97.4399, "RA_OF_ASC_NODE": 72.3842, "ARG_OF_PERICENTER": 143.0407, "MEAN_ANOMALY": 217.0972, "EPHEMERIS_TYPE": 0, "CLASSIFICATION_TYPE": "U", "NORAD_CAT_ID": 66695, "ELEMENT_SET_NO": 999, "REV_AT_EPOCH": 426, "BSTAR": 0.0010356578, "MEAN_MOTION_DOT": 0.00021236, "MEAN_MOTION_DDOT": 0}, "tle": {"line1": "1 66695U 25276AF  25360.83666487  .00021236  00000+0  10357-2 0  9999", "line2": "2 66695  97.4399  72.3842 0002090 143.0407 217.0972 15.18329918  4268"}}, "geometry": {"type": "Point", "coordinates": [56.85364790513185, 64.62965839809556]}}, {"type": "Feature", "properties": {"norad_id": 66696, "name": "IRIDE FM2", "group": "last-30-days", "lat": -18.791285507588018, "lon": 75.35536043009212, "alt_km": 518.8582668142344, "timestamp": "2025-12-27T07:26:23.944972+00:00", "meta": {"OBJECT_NAME": "IRIDE FM2", "OBJECT_ID": "2025-276AG", "EPOCH": "2025-12-26T22:01:40.110240", "MEAN_MOTION": 15.17465994, "ECCENTRICITY": 0.000253, "INCLINATION": 97.4382, "RA_OF_ASC_NODE": 72.4224, "ARG_OF_PERICENTER": 245.6527, "MEAN_ANOMALY": 114.4442, "EPHEMERIS_TYPE": 0, "CLASSIFICATION_TYPE": "U", "NORAD_CAT_ID": 66696, "ELEMENT_SET_NO": 999, "REV_AT_EPOCH": 427, "BSTAR": 0.0003645684, "MEAN_MOTION_DOT": 7.236e-05, "MEAN_MOTION_DDOT": 0}, "tle": {"line1": "1 66696U 25276AG  25360.91782535  .00007236  00000+0  36457-3 0  9996", "line2": "2 66696  97.4382  72.4224 0002530 245.6527 114.4442 15.17465994  4274"}}, "geometry": {"type": "Point", "coordinates": [75.35536043009212, -18.791285507588018]}}, {"type": "Feature", "properties": {"norad_id": 66697, "name": "IRIDE FM3", "group": "last-30-days", "lat": 57.02481821162099, "lon": 61.2233948688341, "alt_km": 505.6653086647757, "timestamp": "2025-12-27T07:26:23.944982+00:00", "meta": {"OBJECT_NAME": "IRIDE FM3", "OBJECT_ID": "2025-276AH", "EPOCH": "2025-12-26T21:41:44.279808", "MEAN_MOTION": 15.1823607, "ECCENTRICITY": 0.00014859, "INCLINATION": 97.4382, "RA_OF_ASC_NODE": 72.4412, "ARG_OF_PERICENTER": 147.0189, "MEAN_ANOMALY": 213.1138, "EPHEMERIS_TYPE": 0, "CLASSIFICATION_TYPE": "U", "NORAD_CAT_ID": 66697, "ELEMENT_SET_NO": 999, "REV_AT_EPOCH": 427, "BSTAR": 0.00064951521, "MEAN_MOTION_DOT": 0.00013243, "MEAN_MOTION_DDOT": 0}, "tle": {"line1": "1 66697U 25276AH  25360.90398472  .00013243  00000+0  64952-3 0  9995", "line2": "2 66697  97.4382  72.4412 0001485 147.0189 213.1138 15.18236070  4272"}}, "geometry": {"type": "Point", "coordinates": [61.2233948688341, 57.02481821162099]}}]}